NORAD_CAT_ID,OBJECT_NAME,OBJECT_TYPE,EPOCH,MEAN_MOTION,ECCENTRICITY,INCLINATION,RA_OF_ASC_NODE,ARG_OF_PERICENTER,MEAN_ANOMALY,BSTAR,MEAN_MOTION_DOT,MEAN_MOTION_DDOT,TLE_LINE0,TLE_LINE1,TLE_LINE2,SEMIMAJOR_AXIS,PERIOD,APOGEE,PERIGEE,DECAYED
27216,PSLV DEB,DEBRIS,2021-08-02 12:42:30,15.05047229,0.003153,98.2356,235.8815,173.6533,339.4147,6.7374e-05,8.95e-06,0.0,0 PSLV DEB,1 27216U 01049FL  21214.52952160  .00000895  00000-0  67374-4 0  9995,2 27216  98.2356 235.8815 0031530 173.6533 339.4147 15.05047229 63954,6929.498000000001,95.678,573.211,529.514,0.0
27216,PSLV DEB,DEBRIS,2021-08-03 12:38:42,15.05050414,0.0031601,98.2355,236.945,170.4267,343.1604,7.7225e-05,1.036e-05,0.0,0 PSLV DEB,1 27216U 01049FL  21215.52687778  .00001036  00000-0  77225-4 0  9990,2 27216  98.2355 236.9450 0031601 170.4267 343.1604 15.05050414 64106,6929.488,95.678,573.251,529.455,0.0
27216,PSLV DEB,DEBRIS,2021-08-04 12:34:54,15.05053639,0.0031666,98.2354,238.0085,167.209,346.9234,9.1238e-05,1.238e-05,0.0,0 PSLV DEB,1 27216U 01049FL  21216.52423775  .00001238  00000-0  91238-4 0  9990,2 27216  98.2354 238.0085 0031666 167.2090 346.9234 15.05053639 64259,6929.478,95.678,573.286,529.4,0.0
27216,PSLV DEB,DEBRIS,2021-08-04 20:26:20,15.05054304,0.00317,98.2354,238.3576,166.1589,320.7022,9.2094e-05,1.25e-05,0.0,0 PSLV DEB,1 27216U 01049FL  21216.85162097  .00001250  00000-0  92094-4 0  9998,2 27216  98.2354 238.3576 0031700 166.1589 320.7022 15.05054304 64308,6929.476,95.678,573.307,529.375,0.0
27216,PSLV DEB,DEBRIS,2021-08-05 07:19:38,15.05055173,0.0031737,98.2354,238.8414,164.7101,258.7786,9.2344e-05,1.254e-05,0.0,0 PSLV DEB,1 27216U 01049FL  21217.30530476  .00001254  00000-0  92344-4 0  9991,2 27216  98.2354 238.8414 0031737 164.7101 258.7786 15.05055173 64377,6929.473000000001,95.678,573.33,529.346,0.0
27216,PSLV DEB,DEBRIS,2021-08-06 00:50:19,15.05057534,0.0031783000000000002,98.2354,239.6194,162.3632,252.0439,0.00010333,1.412e-05,0.0,0 PSLV DEB,1 27216U 01049FL  21218.03494928  .00001412  00000-0  10333-3 0  9996,2 27216  98.2354 239.6194 0031783 162.3632 252.0439 15.05057534 64482,6929.4659999999985,95.677,573.355,529.307,0.0
27216,PSLV DEB,DEBRIS,2021-08-06 21:52:16,15.05059728,0.0031840999999999996,98.2354,240.5539,159.5285,320.1835,0.00010883,1.491e-05,0.0,0 PSLV DEB,1 27216U 01049FL  21218.91129810  .00001491  00000-0  10883-3 0  9995,2 27216  98.2354 240.5539 0031841 159.5285 320.1835 15.05059728 64612,6929.459,95.677,573.388,529.26,0.0
27216,PSLV DEB,DEBRIS,2021-08-07 07:11:30,15.05060324,0.0031864999999999997,98.2354,240.968,158.2697,264.3369,0.00010425,1.425e-05,0.0,0 PSLV DEB,1 27216U 01049FL  21219.29965370  .00001425  00000-0  10425-3 0  9995,2 27216  98.2354 240.9680 0031865 158.2697 264.3369 15.05060324 64673,6929.458000000001,95.677,573.403,529.242,0.0
27216,PSLV DEB,DEBRIS,2021-08-07 12:24:56,15.05062488,0.0031874000000000004,98.2354,241.2001,157.5654,3.71,0.00012297,1.695e-05,0.0,0 PSLV DEB,1 27216U 01049FL  21219.51732566  .00001695  00000-0  12297-3 0  9997,2 27216  98.2354 241.2001 0031874 157.5654   3.7100 15.05062488 64704,6929.451,95.677,573.403,529.229,0.0
27216,PSLV DEB,DEBRIS,2021-08-08 07:07:40,15.050658800000004,0.0031919,98.2355,242.0315,155.0358,268.0389,0.00013829,1.915e-05,0.0,0 PSLV DEB,1 27216U 01049FL  21220.29699167  .00001915  00000-0  13829-3 0  9990,2 27216  98.2355 242.0315 0031919 155.0358 268.0389 15.05065880 64823,6929.44,95.677,573.424,529.187,0.0
27216,PSLV DEB,DEBRIS,2021-08-09 00:32:02,15.0506861,0.0031958999999999998,98.2355,242.8049,152.6516,237.63400000000001,0.00014304,1.984e-05,0.0,0 PSLV DEB,1 27216U 01049FL  21221.02225262  .00001984  00000-0  14304-3 0  9998,2 27216  98.2355 242.8049 0031959 152.6516 237.6340 15.05068610 64933,6929.432,95.677,573.443,529.151,0.0
27216,PSLV DEB,DEBRIS,2021-08-09 07:03:10,15.05069694,0.0031991999999999997,98.2355,243.0945,151.7767,269.275,0.00014649,2.033e-05,0.0,0 PSLV DEB,1 27216U 01049FL  21221.29386753  .00002033  00000-0  14649-3 0  9998,2 27216  98.2355 243.0945 0031992 151.7767 269.2750 15.05069694 64979,6929.429,95.677,573.462,529.125,0.0
27216,PSLV DEB,DEBRIS,2021-08-10 00:36:04,15.05072257,0.0032045999999999997,98.2356,243.8742,149.3962,270.9324,0.00014538,2.018e-05,0.0,0 PSLV DEB,1 27216U 01049FL  21222.02504830  .00002018  00000-0  14538-3 0  9998,2 27216  98.2356 243.8742 0032046 149.3962 270.9324 15.05072257 65082,6929.4209999999985,95.676,573.492,529.08,0.0
27216,PSLV DEB,DEBRIS,2021-08-11 06:54:45,15.0507674,0.0032154,98.2357,245.2209,145.2311,274.0052,0.00014124,1.959e-05,0.0,0 PSLV DEB,1 27216U 01049FL  21223.28802260  .00001959  00000-0  14124-3 0  9999,2 27216  98.2357 245.2209 0032154 145.2311 274.0052 15.05076740 65275,6929.406999999997,95.676,573.553,528.991,0.0
27216,PSLV DEB,DEBRIS,2021-08-12 06:50:29,15.05080174,0.0032241999999999995,98.2358,246.2842,141.9561,276.1702,0.00013328,1.844e-05,0.0,0 PSLV DEB,1 27216U 01049FL  21224.28505877  .00001844  00000-0  13328-3 0  9992,2 27216  98.2358 246.2842 0032242 141.9561 276.1702 15.05080174 65426,6929.397,95.676,573.6030000000002,528.92,0.0
27216,PSLV DEB,DEBRIS,2021-08-12 20:07:18,15.05082021,0.0032284999999999996,98.2359,246.8743,140.1302,34.3554,0.00012809,1.77e-05,0.0,0 PSLV DEB,1 27216U 01049FL  21224.83840826  .00001770  00000-0  12809-3 0  9990,2 27216  98.2359 246.8743 0032285 140.1302  34.3554 15.05082021 65505,6929.391,95.676,573.627,528.884,0.0
27216,PSLV DEB,DEBRIS,2021-08-13 00:16:20,15.050826500000001,0.0032299,98.2359,247.0587,139.5678,251.3855,0.00012662,1.749e-05,0.0,0 PSLV DEB,1 27216U 01049FL  21225.01134921  .00001749  00000-0  12662-3 0  9996,2 27216  98.2359 247.0587 0032299 139.5678 251.3855 15.05082650 65533,6929.389,95.676,573.635,528.873,0.0
27216,PSLV DEB,DEBRIS,2021-08-13 21:25:05,15.05086106,0.0032383000000000004,98.2361,247.9983,136.6694,345.2541,0.00012450000000000002,1.719e-05,0.0,0 PSLV DEB,1 27216U 01049FL  21225.89242078  .00001719  00000-0  12450-3 0  9997,2 27216  98.2361 247.9983 0032383 136.6694 345.2541 15.05086106 65664,6929.378000000002,95.676,573.683,528.804,0.0
27216,PSLV DEB,DEBRIS,2021-08-14 00:20:26,15.05086528,0.0032400999999999997,98.2361,248.1282,136.282,285.0447,0.00012344,1.703e-05,0.0,0 PSLV DEB,1 27216U 01049FL  21226.01419490  .00001703  00000-0  12344-3 0  9991,2 27216  98.2361 248.1282 0032401 136.2820 285.0447 15.05086528 65672,6929.3769999999995,95.676,573.694,528.79,0.0
27216,PSLV DEB,DEBRIS,2021-08-14 13:30:18,15.05088024,0.0032455999999999995,98.2362,248.7132,134.4719,17.0684,0.00011577,1.593e-05,0.0,0 PSLV DEB,1 27216U 01049FL  21226.56271373  .00001593  00000-0  11577-3 0  9991,2 27216  98.2362 248.7132 0032456 134.4719  17.0684 15.05088024 65769,6929.3719999999985,95.675,573.727,528.748,0.0
27216,PSLV DEB,DEBRIS,2021-08-14 19:59:23,15.05088852,0.0032479999999999996,98.2362,249.0013,133.6026,41.0728,0.00011367,1.563e-05,0.0,0 PSLV DEB,1 27216U 01049FL  21226.83291528  .00001563  00000-0  11367-3 0  9999,2 27216  98.2362 249.0013 0032480 133.6026  41.0728 15.05088852 65800,6929.37,95.675,573.742,528.7280000000002,0.0
27216,PSLV DEB,DEBRIS,2021-08-15 13:26:14,15.05091311,0.0032546999999999997,98.2363,249.7766,131.2194,20.0057,0.00011009,1.512e-05,0.0,0 PSLV DEB,1 27216U 01049FL  21227.55988875  .00001512  00000-0  11009-3 0  9994,2 27216  98.2363 249.7766 0032547 131.2194  20.0057 15.05091311 65915,6929.361999999999,95.675,573.78,528.674,0.0
27216,PSLV DEB,DEBRIS,2021-08-15 19:54:44,15.05092025,0.0032569,98.2363,250.0644,130.3347,41.7963,0.00010756,1.475e-05,0.0,0 PSLV DEB,1 27216U 01049FL  21227.82967814  .00001475  00000-0  10756-3 0  9990,2 27216  98.2363 250.0644 0032569 130.3347  41.7963 15.05092025 65952,6929.36,95.675,573.793,528.6569999999998,0.0
27216,PSLV DEB,DEBRIS,2021-08-16 13:22:12,15.05094844,0.0032633000000000002,98.2363,250.8401,127.9752,23.1081,0.00010968,1.506e-05,0.0,0 PSLV DEB,1 27216U 01049FL  21228.55709362  .00001506  00000-0  10968-3 0  9993,2 27216  98.2363 250.8401 0032633 127.9752  23.1081 15.05094844 66064,6929.352,95.675,573.8290000000002,528.604,0.0
27216,PSLV DEB,DEBRIS,2021-08-17 00:11:15,15.05096006,0.0032684,98.2364,251.3207,126.4941,305.2724,0.00010633,1.458e-05,0.0,0 PSLV DEB,1 27216U 01049FL  21229.00782019  .00001458  00000-0  10633-3 0  9999,2 27216  98.2364 251.3207 0032684 126.4941 305.2724 15.05096006 66133,6929.348000000001,95.675,573.861,528.565,0.0
27216,PSLV DEB,DEBRIS,2021-08-17 13:19:55,15.05097292,0.003273,98.2364,251.9048,124.714,32.7377,0.00010015,1.369e-05,0.0,0 PSLV DEB,1 27216U 01049FL  21229.55549941  .00001369  00000-0  10015-3 0  9999,2 27216  98.2364 251.9048 0032730 124.7140  32.7377 15.05097292 66219,6929.344,95.675,573.889,528.529,0.0
27216,PSLV DEB,DEBRIS,2021-08-17 21:09:20,15.05098443,0.0032738,98.2364,252.2525,123.6508,359.0027,0.000101,1.381e-05,0.0,0 PSLV DEB,1 27216U 01049FL  21229.88148230  .00001381  00000-0  10100-3 0  9990,2 27216  98.2364 252.2525 0032738 123.6508 359.0027 15.05098443 66268,6929.3409999999985,95.675,573.891,528.52,0.0
27216,PSLV DEB,DEBRIS,2021-08-18 07:50:13,15.05099609,0.0032775,98.2364,252.7271,122.2002,250.5005,9.798299999999999e-05,1.338e-05,0.0,0 PSLV DEB,1 27216U 01049FL  21230.32654994  .00001338  00000-0  97983-4 0  9997,2 27216  98.2364 252.7271 0032775 122.2002 250.5005 15.05099609 66330,6929.3369999999995,95.675,573.913,528.491,0.0
27216,PSLV DEB,DEBRIS,2021-08-18 21:05:20,15.05100982,0.0032803000000000003,98.2363,253.31599999999997,120.4054,2.2357,9.3946e-05,1.28e-05,0.0,0 PSLV DEB,1 27216U 01049FL  21230.87870694  .00001280  00000-0  93946-4 0  9995,2 27216  98.2363 253.3160 0032803 120.4054   2.2357 15.05100982 66410,6929.333000000001,95.675,573.928,528.467,0.0
27216,PSLV DEB,DEBRIS,2021-08-19 13:10:12,15.0510271,0.0032832,98.2363,254.0306,118.2395,32.7047,9.041299999999999e-05,1.229e-05,0.0,0 PSLV DEB,1 27216U 01049FL  21231.54875073  .00001229  00000-0  90413-4 0  9995,2 27216  98.2363 254.0306 0032832 118.2395  32.7047 15.05102710 66511,6929.3269999999975,95.675,573.943,528.442,0.0
